*******************************************************************************
Ephemeris / WWW_USER Mon Mar 24 06:42:35 2025 Pasadena, USA      / Horizons    
*******************************************************************************
Target body name: (2018 WV1)                      {source: JPL#17}
Center body name: Earth (399)                     {source: DE441}
Center-site name: Gemini South Obs., Cerro Pachon
*******************************************************************************
Start time      : A.D. 2018-Sep-18 22:45:00.0000 UT      
Stop  time      : A.D. 2018-Sep-19 10:28:00.0000 UT      
Step-size       : 1 minutes
*******************************************************************************
Target pole/equ : undefined
Target radii    : undefined                                                    
Center geodetic : 289.2634, -30.2406227, 2.71233  {E-lon(deg),Lat(deg),Alt(km)}
Center cylindric: 289.2634,5517.21435,-3194.81213 {E-lon(deg),Dxy(km),Dz(km)}
Center pole/equ : ITRF93                          {East-longitude positive}
Center radii    : 6378.137, 6378.137, 6356.752 km {Equator_a, b, pole_c}       
Target primary  : Sun
Vis. interferer : MOON (R_eq= 1737.400) km        {source: DE441}
Rel. light bend : Sun                             {source: DE441}
Rel. lght bnd GM: 1.3271E+11 km^3/s^2                                          
Small-body perts: Yes                             {source: SB441-N16}
Atmos refraction: NO (AIRLESS)
RA format       : HMS
Time format     : CAL 
Calendar mode   : Mixed Julian/Gregorian
RTS-only print  : NO       
EOP file        : eop.250321.p250617                                           
EOP coverage    : DATA-BASED 1962-JAN-20 TO 2025-MAR-21. PREDICTS-> 2025-JUN-16
Units conversion: 1 au= 149597870.700 km, c= 299792.458 km/s, 1 day= 86400.0 s 
Table cut-offs 1: Elevation (-90.0deg=NO ),Airmass (>38.000=NO), Daylight (YES)
Table cut-offs 2: Solar elongation (  0.0,180.0=NO ),Local Hour Angle( 0.0=NO )
Table cut-offs 3: RA/DEC angular rate (     0.0=NO )                           
*******************************************************************************
Initial IAU76/J2000 heliocentric ecliptic osculating elements (au, days, deg.):
  EPOCH=  2458458.5 ! 2018-Dec-06.00 (TDB)         Residual RMS= .12928        
   EC= .06869100257422787  QR= .9715505345748198   TP= 2458416.866413563       
   OM= 248.5061090469913   W=  141.3742304527303   IN= 1.905403987972275       
  Equivalent ICRF heliocentric cartesian coordinates (au, au/d):
   X= 2.787163119783287E-01  Y= 8.719775267121872E-01  Z= 3.748421051204766E-01
  VX=-1.676682657337402E-02 VY= 5.516972965834891E-03 VZ= 1.749720915605096E-03
Asteroid physical parameters (km, seconds, rotational period in hours):        
   GM= n.a.                RAD= n.a.               ROTPER= n.a.                
   H= 30.3                 G= .150                 B-V= n.a.                   
                           ALBEDO= n.a.            STYP= n.a.                  
*******************************************************************************
 Date__(UT)__HR:MN     R.A._________(ICRF)_________DEC
******************************************************
$$SOE
 2018-Sep-19 09:00     01 46 35.945715 +16 54 26.72568
 2018-Sep-19 09:01     01 46 35.963629 +16 54 27.11332
 2018-Sep-19 09:02     01 46 35.981595 +16 54 27.50064
 2018-Sep-19 09:03     01 46 35.999614 +16 54 27.88764
 2018-Sep-19 09:04     01 46 36.017685 +16 54 28.27433
 2018-Sep-19 09:05     01 46 36.035810 +16 54 28.66070
 2018-Sep-19 09:06     01 46 36.053989 +16 54 29.04676
 2018-Sep-19 09:07     01 46 36.072222 +16 54 29.43251
 2018-Sep-19 09:08     01 46 36.090509 +16 54 29.81795
 2018-Sep-19 09:09     01 46 36.108851 +16 54 30.20307
 2018-Sep-19 09:10     01 46 36.127248 +16 54 30.58789
 2018-Sep-19 09:11     01 46 36.145700 +16 54 30.97239
 2018-Sep-19 09:12     01 46 36.164207 +16 54 31.35659
 2018-Sep-19 09:13     01 46 36.182771 +16 54 31.74048
 2018-Sep-19 09:14     01 46 36.201391 +16 54 32.12407
 2018-Sep-19 09:15     01 46 36.220067 +16 54 32.50735
 2018-Sep-19 09:16     01 46 36.238800 +16 54 32.89033
 2018-Sep-19 09:17 A   01 46 36.257591 +16 54 33.27300
 2018-Sep-19 09:18 A   01 46 36.276439 +16 54 33.65538
 2018-Sep-19 09:19 A   01 46 36.295344 +16 54 34.03745
 2018-Sep-19 09:20 A   01 46 36.314308 +16 54 34.41922
 2018-Sep-19 09:21 A   01 46 36.333330 +16 54 34.80070
 2018-Sep-19 09:22 A   01 46 36.352411 +16 54 35.18188
 2018-Sep-19 09:23 A   01 46 36.371551 +16 54 35.56276
 2018-Sep-19 09:24 A   01 46 36.390751 +16 54 35.94335
 2018-Sep-19 09:25 A   01 46 36.410010 +16 54 36.32365
 2018-Sep-19 09:26 A   01 46 36.429329 +16 54 36.70365
 2018-Sep-19 09:27 A   01 46 36.448708 +16 54 37.08336
 2018-Sep-19 09:28 A   01 46 36.468148 +16 54 37.46278
 2018-Sep-19 09:29 A   01 46 36.487648 +16 54 37.84191
 2018-Sep-19 09:30 A   01 46 36.507210 +16 54 38.22075
 2018-Sep-19 09:31 A   01 46 36.526833 +16 54 38.59931
 2018-Sep-19 09:32 A   01 46 36.546518 +16 54 38.97758
 2018-Sep-19 09:33 A   01 46 36.566265 +16 54 39.35556
 2018-Sep-19 09:34 A   01 46 36.586075 +16 54 39.73326
 2018-Sep-19 09:35 A   01 46 36.605947 +16 54 40.11068
 2018-Sep-19 09:36 A   01 46 36.625881 +16 54 40.48782
 2018-Sep-19 09:37 A   01 46 36.645880 +16 54 40.86468
 2018-Sep-19 09:38 A   01 46 36.665941 +16 54 41.24125
 2018-Sep-19 09:39 A   01 46 36.686066 +16 54 41.61755
 2018-Sep-19 09:40 A   01 46 36.706256 +16 54 41.99358
 2018-Sep-19 09:41 A   01 46 36.726510 +16 54 42.36933
 2018-Sep-19 09:42 A   01 46 36.746828 +16 54 42.74480
 2018-Sep-19 09:43 A   01 46 36.767211 +16 54 43.12000
 2018-Sep-19 09:44 A   01 46 36.787660 +16 54 43.49493
 2018-Sep-19 09:45 N   01 46 36.808174 +16 54 43.86959
 2018-Sep-19 09:46 N   01 46 36.828754 +16 54 44.24398
 2018-Sep-19 09:47 N   01 46 36.849400 +16 54 44.61811
 2018-Sep-19 09:48 N   01 46 36.870112 +16 54 44.99196
 2018-Sep-19 09:49 N   01 46 36.890891 +16 54 45.36555
 2018-Sep-19 09:50 N   01 46 36.911736 +16 54 45.73888
 2018-Sep-19 09:51 N   01 46 36.932649 +16 54 46.11194
 2018-Sep-19 09:52 N   01 46 36.953629 +16 54 46.48474
 2018-Sep-19 09:53 N   01 46 36.974677 +16 54 46.85728
 2018-Sep-19 09:54 N   01 46 36.995793 +16 54 47.22956
 2018-Sep-19 09:55 N   01 46 37.016977 +16 54 47.60158
 2018-Sep-19 09:56 N   01 46 37.038229 +16 54 47.97334
 2018-Sep-19 09:57 N   01 46 37.059550 +16 54 48.34485
 2018-Sep-19 09:58 N   01 46 37.080940 +16 54 48.71611
 2018-Sep-19 09:59 N   01 46 37.102400 +16 54 49.08711
 2018-Sep-19 10:00 N   01 46 37.123929 +16 54 49.45786
 2018-Sep-19 10:01 N   01 46 37.145528 +16 54 49.82836
 2018-Sep-19 10:02 N   01 46 37.167197 +16 54 50.19861
 2018-Sep-19 10:03 N   01 46 37.188936 +16 54 50.56861
 2018-Sep-19 10:04 N   01 46 37.210745 +16 54 50.93837
 2018-Sep-19 10:05 N   01 46 37.232626 +16 54 51.30788
 2018-Sep-19 10:06 N   01 46 37.254577 +16 54 51.67714
 2018-Sep-19 10:07 N   01 46 37.276600 +16 54 52.04617
 2018-Sep-19 10:08 N   01 46 37.298695 +16 54 52.41495
 2018-Sep-19 10:09 N   01 46 37.320861 +16 54 52.78350
 2018-Sep-19 10:10 N   01 46 37.343099 +16 54 53.15180
 2018-Sep-19 10:11 N   01 46 37.365410 +16 54 53.51987
 2018-Sep-19 10:12 N   01 46 37.387793 +16 54 53.88770
 2018-Sep-19 10:13 C   01 46 37.410249 +16 54 54.25529
 2018-Sep-19 10:14 C   01 46 37.432778 +16 54 54.62266
 2018-Sep-19 10:15 C   01 46 37.455380 +16 54 54.98979
 2018-Sep-19 10:16 C   01 46 37.478056 +16 54 55.35669
 2018-Sep-19 10:17 C   01 46 37.500806 +16 54 55.72336
 2018-Sep-19 10:18 C   01 46 37.523629 +16 54 56.08981
 2018-Sep-19 10:19 C   01 46 37.546527 +16 54 56.45602
 2018-Sep-19 10:20 C   01 46 37.569499 +16 54 56.82202
 2018-Sep-19 10:21 C   01 46 37.592546 +16 54 57.18778
 2018-Sep-19 10:22 C   01 46 37.615668 +16 54 57.55333
 2018-Sep-19 10:23 C   01 46 37.638864 +16 54 57.91866
 2018-Sep-19 10:24 C   01 46 37.662137 +16 54 58.28376
 2018-Sep-19 10:25 C   01 46 37.685485 +16 54 58.64865
 2018-Sep-19 10:26 C   01 46 37.708908 +16 54 59.01332
 2018-Sep-19 10:27 C   01 46 37.732408 +16 54 59.37778
 2018-Sep-19 10:28 C   01 46 37.755984 +16 54 59.74202
